H1 CPF  1  DGF 2022 09 10 10  7531 larets     NONE      
H2   304206 5557    27944 2022 09 10 00 00 00 2022 09 17 00 00 00    30 1 1  0 0 0
H5  0.0650
H9
10 0 59837   7200.000000  0       6309553.550        740465.221      -3077972.071
10 0 59837   7230.000000  0       6408195.411        701761.971      -2875950.226
10 0 59837   7260.000000  0       6500159.334        661929.280      -2670986.962
10 0 59837   7290.000000  0       6585345.336        621036.839      -2463291.162
10 0 59837   7320.000000  0       6663660.640        579155.867      -2253074.643
10 0 59837   7350.000000  0       6735019.791        536359.001      -2040551.936
10 0 59837   7380.000000  0       6799344.759        492720.197      -1825940.065
10 0 59837   7410.000000  0       6856565.028        448314.614      -1609458.316
10 0 59837   7440.000000  0       6906617.692        403218.512      -1391328.013
10 0 59837   7470.000000  0       6949447.526        357509.134      -1171772.281
10 0 59837   7500.000000  0       6985007.061        311264.593       -951015.815
10 0 59837   7530.000000  0       7013256.637        264563.762       -729284.638
10 0 59837   7560.000000  0       7034164.460        217486.158       -506805.869
10 0 59837   7590.000000  0       7047706.643        170111.824       -283807.480
10 0 59837   7620.000000  0       7053867.241        122521.210        -60518.055
10 0 59837   7650.000000  0       7052638.278         74795.059        162833.454
10 0 59837   7680.000000  0       7044019.760         27014.279        386017.978
10 0 59837   7710.000000  0       7028019.672        -20740.171        608806.572
10 0 59837   7740.000000  0       7004653.972        -68387.403        830970.658
10 0 59837   7770.000000  0       6973946.584       -115846.717       1052282.266
10 0 59837   7800.000000  0       6935929.372       -163037.722       1272514.281
10 0 59837   7830.000000  0       6890642.106       -209880.451       1491440.691
10 0 59837   7860.000000  0       6838132.417       -256295.485       1708836.830
10 0 59837   7890.000000  0       6778455.738       -302204.064       1924479.617
10 0 59837   7920.000000  0       6711675.244       -347528.204       2138147.790
10 0 59837   7950.000000  0       6637861.780       -392190.817       2349622.147
10 0 59837   7980.000000  0       6557093.776       -436115.821       2558685.775
10 0 59837   8010.000000  0       6469457.161       -479228.257       2765124.283
10 0 59837   8040.000000  0       6375045.254       -521454.396       2968726.028
10 0 59837   8070.000000  0       6273958.660       -562721.850       3169282.337
10 0 59837   8100.000000  0       6166305.152       -602959.668       3366587.721
10 0 59837   8130.000000  0       6052199.548       -642098.449       3560440.090
10 0 59837   8160.000000  0       5931763.590       -680070.437       3750640.966
10 0 59837   8190.000000  0       5805125.804       -716809.629       3936995.691
10 0 59837   8220.000000  0       5672421.348       -752251.868       4119313.641
10 0 59837   8250.000000  0       5533791.850       -786334.945       4297408.416
10 0 59837   8280.000000  0       5389385.247       -818998.681       4471098.029
10 0 59837   8310.000000  0       5239355.617       -850185.023       4640205.091
10 0 59837   8340.000000  0       5083863.008       -879838.123       4804556.995
10 0 59837   8370.000000  0       4923073.248       -907904.427       4963986.094
10 0 59837   8400.000000  0       4757157.761       -934332.743       5118329.870
10 0 59837   8430.000000  0       4586293.364       -959074.323       5267431.090
10 0 59837   8460.000000  0       4410662.081       -982082.925       5411137.964
10 0 59837   8490.000000  0       4230450.934      -1003314.889       5549304.298
10 0 59837   8520.000000  0       4045851.737      -1022729.198       5681789.640
10 0 59837   8550.000000  0       3857060.881      -1040287.544       5808459.420
10 0 59837   8580.000000  0       3664279.113      -1055954.379       5929185.080
10 0 59837   8610.000000  0       3467711.315      -1069696.972       6043844.198
10 0 59837   8640.000000  0       3267566.278      -1081485.456       6152320.603
10 0 59837   8670.000000  0       3064056.474      -1091292.874       6254504.489
10 0 59837   8700.000000  0       2857397.830      -1099095.216       6350292.518
10 0 59837   8730.000000  0       2647809.491      -1104871.464       6439587.921
10 0 59837   8760.000000  0       2435513.579      -1108603.621       6522300.595
10 0 59837   8790.000000  0       2220734.955      -1110276.743       6598347.183
10 0 59837   8820.000000  0       2003700.973      -1109878.962       6667651.157
10 0 59837   8850.000000  0       1784641.231      -1107401.508       6730142.883
10 0 59837   8880.000000  0       1563787.330      -1102838.725       6785759.687
10 0 59837   8910.000000  0       1341372.619      -1096188.081       6834445.910
10 0 59837   8940.000000  0       1117631.949      -1087450.179       6876152.953
10 0 59837   8970.000000  0        892801.427      -1076628.760       6910839.325
10 0 59837   9000.000000  0        667118.160      -1063730.702       6938470.674
10 0 59837   9030.000000  0        440820.009      -1048766.018       6959019.818
10 0 59837   9060.000000  0        214145.335      -1031747.844       6972466.767
10 0 59837   9090.000000  0        -12667.254      -1012692.431       6978798.733
10 0 59837   9120.000000  0       -239379.145       -991619.126       6978010.139
10 0 59837   9150.000000  0       -465751.976       -968550.353       6970102.628
10 0 59837   9180.000000  0       -691547.888       -943511.591       6955085.052
10 0 59837   9210.000000  0       -916529.766       -916531.338       6932973.461
10 0 59837   9240.000000  0      -1140461.495       -887641.084       6903791.085
10 0 59837   9270.000000  0      -1363108.204       -856875.272       6867568.306
10 0 59837   9300.000000  0      -1584236.506       -824271.254       6824342.628
10 0 59837   9330.000000  0      -1803614.745       -789869.250       6774158.637
10 0 59837   9360.000000  0      -2021013.236       -753712.301       6717067.958
10 0 59837   9390.000000  0      -2236204.504       -715846.212       6653129.205
10 0 59837   9420.000000  0      -2448963.522       -676319.500       6582407.922
10 0 59837   9450.000000  0      -2659067.949       -635183.330       6504976.521
10 0 59837   9480.000000  0      -2866298.360       -592491.455       6420914.208
10 0 59837   9510.000000  0      -3070438.482       -548300.145       6330306.908
10 0 59837   9540.000000  0      -3271275.415       -502668.121       6233247.179
10 0 59837   9570.000000  0      -3468599.860       -455656.478       6129834.121
10 0 59837   9600.000000  0      -3662206.339       -407328.613       6020173.277
10 0 59837   9630.000000  0      -3851893.412       -357750.138       5904376.533
10 0 59837   9660.000000  0      -4037463.893       -306988.798       5782562.004
10 0 59837   9690.000000  0      -4218725.052       -255114.384       5654853.917
10 0 59837   9720.000000  0      -4395488.826       -202198.643       5521382.486
10 0 59837   9750.000000  0      -4567572.013       -148315.188       5382283.782
10 0 59837   9780.000000  0      -4734796.467        -93539.399       5237699.599
10 0 59837   9810.000000  0      -4896989.285        -37948.327       5087777.312
10 0 59837   9840.000000  0      -5053982.994         18379.406       4932669.732
10 0 59837   9870.000000  0      -5205615.732         75363.716       4772534.949
10 0 59837   9900.000000  0      -5351731.416        132923.157       4607536.175
10 0 59837   9930.000000  0      -5492179.906        190975.031       4437841.573
10 0 59837   9960.000000  0      -5626817.165        249435.502       4263624.093
10 0 59837   9990.000000  0      -5755505.410        308219.700       4085061.300
10 0 59837  10020.000000  0      -5878113.257        367241.842       3902335.192
10 0 59837  10050.000000  0      -5994515.869        426415.344       3715632.018
10 0 59837  10080.000000  0      -6104595.083        485652.940       3525142.093
10 0 59837  10110.000000  0      -6208239.540        544866.798       3331059.594
10 0 59837  10140.000000  0      -6305344.803        603968.647       3133582.371
10 0 59837  10170.000000  0      -6395813.465        662869.891       2932911.737
10 0 59837  10200.000000  0      -6479555.255        721481.734       2729252.263
10 0 59837  10230.000000  0      -6556487.127        779715.298       2522811.569
10 0 59837  10260.000000  0      -6626533.353        837481.751       2313800.115
10 0 59837  10290.000000  0      -6689625.600        894692.426       2102430.976
10 0 59837  10320.000000  0      -6745703.004        951258.947       1888919.629
10 0 59837  10350.000000  0      -6794712.231       1007093.349       1673483.724
10 0 59837  10380.000000  0      -6836607.528       1062108.204       1456342.860
10 0 59837  10410.000000  0      -6871350.772       1116216.742       1237718.356
10 0 59837  10440.000000  0      -6898911.504       1169332.976       1017833.021
10 0 59837  10470.000000  0      -6919266.955       1221371.822        796910.923
10 0 59837  10500.000000  0      -6932402.065       1272249.219        575177.154
10 0 59837  10530.000000  0      -6938309.494       1321882.252        352857.593
10 0 59837  10560.000000  0      -6936989.615       1370189.266        130178.676
10 0 59837  10590.000000  0      -6928450.510       1417089.984        -92632.842
10 0 59837  10620.000000  0      -6912707.952       1462505.623       -315350.121
10 0 59837  10650.000000  0      -6889785.375       1506359.004       -537746.474
10 0 59837  10680.000000  0      -6859713.842       1548574.667       -759595.598
10 0 59837  10710.000000  0      -6822532.000       1589078.977       -980671.808
10 0 59837  10740.000000  0      -6778286.028       1627800.231      -1200750.267
10 0 59837  10770.000000  0      -6727029.583       1664668.764      -1419607.221
99
